ONEWEB-0055             
1 45443U 20020V   23146.81370072 -.00000028  00000+0 -11555-3 0  9999
2 45443  87.8913 243.0071 0002031  98.7642 261.3716 13.11412992156165
ONEWEB-0093             
1 45444U 20020W   23146.78720734  .00000467  00000+0  12821-2 0  9991
2 45444  87.8908 243.0073 0002190  93.4792 266.6587 13.11415369156228
ONEWEB-0029             
1 45445U 20020X   23146.80944339  .00000200  00000+0  52968-3 0  9996
2 45445  87.8911 243.0035 0002282  99.3973 260.7413 13.11412687156200
ONEWEB-0068             
1 45446U 20020Y   23146.77976314  .00000217  00000+0  57555-3 0  9996
2 45446  87.8910 243.0058 0002290  92.1542 267.9848 13.11421655156146
ONEWEB-0046             
1 45447U 20020Z   23146.77657942  .00000078  00000+0  18419-3 0  9991
2 45447  87.8908 243.0182 0002136 105.5791 254.5573 13.11421062156156
ONEWEB-0063             
1 45448U 20020AA  23146.80627064  .00000320  00000+0  86759-3 0  9990
2 45448  87.8913 243.0010 0002088 107.8467 252.2888 13.11412161156248
ONEWEB-0019             
1 45449U 20020AB  23146.78080914  .00000074  00000+0  17218-3 0  9995
2 45449  87.8927 243.0067 0001816  81.7477 278.3857 13.11415952156083
ONEWEB-0094             
1 45450U 20020AC  23146.75165238  .00000027  00000+0  37235-4 0  9997
2 45450  87.9124 227.9373 0002128  97.8016 262.3357 13.17648102159150
ONEWEB-0087             
1 45451U 20020AD  23146.81473026 -.00000008  00000+0 -59126-4 0  9996
2 45451  87.8981 242.9419 0002428  99.5367 260.6036 13.11412998156136
ONEWEB-0082             
1 45452U 20020AE  23146.81686731 -.00000088  00000+0 -28461-3 0  9991
2 45452  87.8913 242.9736 0002055  95.2249 264.9113 13.11415519156227
ONEWEB-0050             
1 45453U 20020AF  23146.92821090  .00002960  00000+0  23065-3 0  9997
2 45453  87.5339 132.3254 0027479  42.0141 318.3193 15.00551132173719
ONEWEB-0034             
1 45454U 20020AG  23146.75962878 -.00000491  00000+0 -14213-2 0  9992
2 45454  87.8914 243.0046 0002118 100.5807 259.5560 13.11418165156132
ONEWEB-0060             
1 45455U 20020AH  23146.76706683 -.00000342  00000+0 -10017-2 0  9997
2 45455  87.8910 243.0090 0002056 101.1898 258.9461 13.11416233156098
ONEWEB-0086             
1 45456U 20020AJ  23146.78506943  .00000412  00000+0  11275-2 0  9990
2 45456  87.8913 243.0025 0002208  96.1921 263.9458 13.11416390156152
ONEWEB-0088             
1 45457U 20020AK  23146.76174820 -.00000507  00000+0 -14668-2 0  9990
2 45457  87.8903 242.9962 0002195 102.8470 257.2903 13.11418711156081
ONEWEB-0102             
1 47258U 20100A   23146.72628005  .00000150  00000+0  38289-3 0  9993
2 47258  87.9015 212.7158 0001888  88.8034 271.3311 13.12443004118156
ONEWEB-0109             
1 47259U 20100B   23146.73684931 -.00000183  00000+0 -54280-3 0  9992
2 47259  87.9032 212.7161 0002140  97.0977 263.0395 13.12442110117987
ONEWEB-0110             
1 47260U 20100C   23146.68390159 -.00000229  00000+0 -67186-3 0  9994
2 47260  87.9028 212.6960 0002055  91.0482 269.0882 13.12443789118149
ONEWEB-0111             
1 47261U 20100D   23146.71566311  .00000405  00000+0  10915-2 0  9995
2 47261  87.9030 212.6729 0001987  94.1958 265.9398 13.12444442117986
ONEWEB-0114             
1 47262U 20100E   23146.74742432 -.00000622  00000+0 -17651-2 0  9996
2 47262  87.9031 212.6926 0001484  98.7938 261.3359 13.12442380117949
ONEWEB-0117             
1 47263U 20100F   23146.73897205 -.00000269  00000+0 -78188-3 0  9995
2 47263  87.9033 212.7243 0002122  98.0428 262.0942 13.12442251117956
ONEWEB-0118             
1 47264U 20100G   23146.69447837 -.00000228  00000+0 -67045-3 0  9998
2 47264  87.9014 212.6850 0001700 115.8839 244.2464 13.12443183118142
ONEWEB-0119             
1 47265U 20100H   23146.72202778  .00000238  00000+0  62607-3 0  9994
2 47265  87.9016 212.7164 0002168  92.9425 267.1952 13.12439618118121
ONEWEB-0120             
1 47266U 20100J   23146.67648959 -.00000404  00000+0 -11585-2 0  9999
2 47266  87.9016 212.7133 0001927 101.2924 258.8421 13.12442252118146
ONEWEB-0121             
1 47267U 20100K   23146.73473106 -.00000212  00000+0 -62473-3 0  9997
2 47267  87.9025 212.6964 0002291  96.2282 263.9107 13.12441701118060
ONEWEB-0122             
1 47268U 20100L   23146.72837063  .00000045  00000+0  89339-4 0  9996
2 47268  87.9031 212.6963 0001987  92.1529 267.9827 13.12438786117978
ONEWEB-0123             
1 47269U 20100M   23146.72414238  .00000194  00000+0  50298-3 0  9998
2 47269  87.9015 212.7145 0002068  96.5804 263.5560 13.12440911118115
ONEWEB-0124             
1 47270U 20100N   23146.71144576  .00000449  00000+0  12124-2 0  9992
2 47270  87.9030 212.7042 0002462  91.3324 268.8087 13.12442694117995
ONEWEB-0125             
1 47271U 20100P   23146.68814546 -.00000110  00000+0 -34161-3 0  9993
2 47271  87.9031 212.7276 0001985 100.3887 259.7465 13.12444287118057
ONEWEB-0126             
1 47272U 20100Q   23146.71462863  .00000441  00000+0  11904-2 0  9993
2 47272  87.9030 212.7173 0001945  94.8676 265.2675 13.12441683118122
ONEWEB-0127             
1 47273U 20100R   23146.67753469 -.00000415  00000+0 -11886-2 0  9996
2 47273  87.9015 212.7126 0001995  98.0266 262.1088 13.12440807118143
ONEWEB-0128             
1 47274U 20100S   23146.69874177  .00000269  00000+0  71369-3 0  9997
2 47274  87.9022 212.6868 0002175  86.9645 273.1732 13.12443550118160
ONEWEB-0129             
1 47275U 20100T   23146.60343089 -.00000341  00000+0 -98236-3 0  9997
2 47275  87.9028 212.7516 0000460 117.7763 242.3412 13.12442274118083
ONEWEB-0130             
1 47276U 20100U   23146.70507848  .00000418  00000+0  11254-2 0  9991
2 47276  87.9029 212.7254 0002130  95.0872 265.0499 13.12439049118060
ONEWEB-0131             
1 47277U 20100V   23146.70295111  .00000062  00000+0  13596-3 0  9996
2 47277  87.9027 212.6702 0002260  93.7406 266.3981 13.12448357118105
ONEWEB-0132             
1 47278U 20100W   23146.73262334 -.00000097  00000+0 -30562-3 0  9993
2 47278  87.9028 212.6658 0001903  97.7580 262.3765 13.12443135118001
ONEWEB-0133             
1 47279U 20100X   23146.67332853 -.00001251  00000+0 -35141-2 0  9991
2 47279  87.9029 212.7140 0002106  97.6968 262.4399 13.12435487118156
ONEWEB-0134             
1 47280U 20100Y   23146.71779830  .00000383  00000+0  10300-2 0  9991
2 47280  87.9026 212.6904 0002019  87.2393 272.8966 13.12441994118135
ONEWEB-0135             
1 47281U 20100Z   23146.68601883 -.00000210  00000+0 -61793-3 0  9994
2 47281  87.9016 212.7072 0002018  94.0282 266.1077 13.12445641118158
ONEWEB-0136             
1 47282U 20100AA  23146.70722076  .00000430  00000+0  11593-2 0  9990
2 47282  87.9028 212.7321 0001859  79.4393 280.6945 13.12443340118082
ONEWEB-0137             
1 47283U 20100AB  23146.74320241 -.00000356  00000+0 -10251-2 0  9992
2 47283  87.9031 212.6903 0002014 103.1173 257.0181 13.12443557117996
ONEWEB-0138             
1 47284U 20100AC  23146.71990118  .00000299  00000+0  79520-3 0  9995
2 47284  87.9030 212.7061 0002015  94.9148 265.2210 13.12443619118075
ONEWEB-0139             
1 47285U 20100AD  23146.69236249  .00000043  00000+0  83875-4 0  9997
2 47285  87.9012 212.7492 0002097  92.0827 268.0541 13.12445785118149
ONEWEB-0140             
1 47286U 20100AE  23146.71355976  .00000432  00000+0  11642-2 0  9993
2 47286  87.9031 212.6821 0002036  92.6486 267.4876 13.12440031118116
ONEWEB-0141             
1 47287U 20100AF  23146.73577423 -.00000163  00000+0 -48920-3 0  9992
2 47287  87.9030 212.6754 0002114 108.3402 251.7957 13.12438337118102
ONEWEB-0142             
1 47288U 20100AG  23146.72730953  .00000111  00000+0  27430-3 0  9995
2 47288  87.9032 212.7285 0001970  97.8477 262.2875 13.12443793118094
ONEWEB-0143             
1 47289U 20100AH  23146.68177424 -.00000539  00000+0 -15332-2 0  9992
2 47289  87.9029 212.6982 0002158  98.4282 261.7092 13.12443399118068
ONEWEB-0144             
1 47290U 20100AJ  23146.73050178  .00000002  00000+0 -29818-4 0  9996
2 47290  87.9032 212.7045 0001705  91.5863 268.5461 13.12440731117994
ONEWEB-0145             
1 47291U 20100AK  23146.70084944  .00000324  00000+0  86406-3 0  9993
2 47291  87.9021 212.7062 0002016  99.4487 260.6870 13.12444504118188
ONEWEB-0146             
1 47292U 20100AL  23146.69659992  .00000173  00000+0  44654-3 0  9994
2 47292  87.9033 212.7266 0002685 100.6833 259.4598 13.12445485118092
ONEWEB-0147             
1 47293U 20100AM  23146.74107776 -.00000286  00000+0 -83075-3 0  9996
2 47293  87.9030 212.6774 0001916  85.3038 274.8309 13.12441381117995
ONEWEB-0115             
1 48042U 21025A   23146.65010674 -.00000077  00000+0 -24526-3 0  9990
2 48042  87.9064 182.4337 0002352  91.9220 268.2179 13.13469361106893
ONEWEB-0152             
1 48043U 21025B   23146.66279154 -.00000237  00000+0 -68281-3 0  9996
2 48043  87.9062 182.4176 0002149  89.5449 270.5926 13.13469750106857
ONEWEB-0153             
1 48044U 21025C   23146.63952049  .00000189  00000+0  48186-3 0  9991
2 48044  87.9065 182.4139 0002004  92.0350 268.1009 13.13468698106844
ONEWEB-0154             
1 48045U 21025D   23146.63740845  .00001834  00000+0  49860-2 0  9998
2 48045  87.9062 182.4243 0002156  85.5400 274.5975 13.13462344106800
ONEWEB-0116             
1 48046U 21025E   23146.60353019 -.00000116  00000+0 -35280-3 0  9995
2 48046  87.9054 182.4080 0002453  93.6285 266.5124 13.13467339106943
ONEWEB-0150             
1 48047U 21025F   23146.65220679 -.00000151  00000+0 -44819-3 0  9993
2 48047  87.9060 182.4192 0001910  95.8835 264.2512 13.13466702106845
ONEWEB-0107             
1 48048U 21025G   23146.65433370 -.00000154  00000+0 -45701-3 0  9992
2 48048  87.9059 182.4176 0001702  97.8009 262.3313 13.13469020106822
ONEWEB-0101             
1 48049U 21025H   23146.61836689  .00000257  00000+0  66828-3 0  9994
2 48049  87.9060 182.4332 0001931  89.4143 270.7207 13.13469991106797
